STARLINK-32945          
1 63118U 25039Q   25223.04704414  .00035158  00000+0  12821-2 0  9993
2 63118  43.0043 122.2142 0001429 255.3208 104.7486 15.27553057 25850
STARLINK-32941          
1 63119U 25039R   25223.05092062  .00031182  00000+0  11384-2 0  9990
2 63119  42.9997 110.9836 0001681 269.9008  90.1651 15.27564330 25982
STARLINK-32942          
1 63120U 25039S   25222.98808290  .00029874  00000+0  10915-2 0  9995
2 63120  42.9993 122.6251 0000326 254.3503 105.7313 15.27556554 25846
STARLINK-32947          
1 63121U 25039T   25223.08672875  .00032647  00000+0  11909-2 0  9992
2 63121  42.9996 121.6459 0002378 290.1633  69.8963 15.27571752 25860
STARLINK-32961          
1 63122U 25039U   25223.06503347  .00034769  00000+0  12678-2 0  9999
2 63122  43.0008 122.3503 0002086 249.6250 110.4377 15.27560038 25851
STARLINK-32948          
1 63123U 25039V   25222.99193685  .00025828  00000+0  94543-3 0  9999
2 63123  43.0023 122.6608 0003277 283.2704  76.7782 15.27555292 25848
STARLINK-32957          
1 63124U 25039W   25223.07145994  .00016206  00000+0  59818-3 0  9996
2 63124  43.0007 122.3997 0001505 252.0813 107.9874 15.27523411 25854
STARLINK-11609 [DTC]    
1 63132U 25043A   25222.99246898  .00176637  00000+0  13492-2 0  9997
2 63132  42.9967  80.8478 0000715 245.2834 114.7959 15.70871960 26323
STARLINK-11604 [DTC]    
1 63133U 25043B   25223.01372363  .00253637  00000+0  19175-2 0  9999
2 63133  43.0002  81.0186 0001926 275.5725  84.4923 15.70876340 26214
STARLINK-11605 [DTC]    
1 63134U 25043C   25222.99777613  .00196091  00000+0  14960-2 0  9990
2 63134  42.9997  80.8894 0001794 290.0138  70.0537 15.70838174 26217
STARLINK-11610 [DTC]    
1 63135U 25043D   25222.62158061  .00180903  00000+0  13800-2 0  9998
2 63135  43.0000  83.2317 0001975 247.9088 112.1570 15.70888656 26156
STARLINK-11613 [DTC]    
1 63136U 25043E   25223.00839212  .00235004  00000+0  17789-2 0  9999
2 63136  43.0015  80.9749 0002649 269.2381  90.8183 15.70902257 26334
STARLINK-11616 [DTC]    
1 63137U 25043F   25222.83435270  .00167779  00000+0  12851-2 0  9994
2 63137  42.9996  81.3626 0001605 233.6694 126.4026 15.70834516 26315
STARLINK-11611 [DTC]    
1 63138U 25043G   25222.97653573  .00194956  00000+0  14803-2 0  9994
2 63138  43.0010  80.7194 0003428 266.1063  93.9412 15.70951568 26330
STARLINK-11628 [DTC]    
1 63139U 25043H   25222.98184738  .00178701  00000+0  13649-2 0  9995
2 63139  43.0014  80.7600 0001736 273.4645  86.6024 15.70866350 26336
STARLINK-11607 [DTC]    
1 63140U 25043J   25222.96592475  .00249836  00000+0  18886-2 0  9992
2 63140  42.9998  80.6307 0002679 326.3038  33.7659 15.70889150 26331
