[{"OBJECT_NAME":"STARLINK-32945","OBJECT_ID":"2025-039Q","EPOCH":"2025-08-11T01:07:44.613696","MEAN_MOTION":15.27553057,"ECCENTRICITY":0.0001429,"INCLINATION":43.0043,"RA_OF_ASC_NODE":122.2142,"ARG_OF_PERICENTER":255.3208,"MEAN_ANOMALY":104.7486,"EPHEMERIS_TYPE":0,"CLASSIFICATION_TYPE":"U","NORAD_CAT_ID":63118,"ELEMENT_SET_NO":999,"REV_AT_EPOCH":2585,"BSTAR":0.0012821,"MEAN_MOTION_DOT":0.00035158,"MEAN_MOTION_DDOT":0},{"OBJECT_NAME":"STARLINK-32941","OBJECT_ID":"2025-039R","EPOCH":"2025-08-11T01:13:19.541568","MEAN_MOTION":15.2756433,"ECCENTRICITY":0.0001681,"INCLINATION":42.9997,"RA_OF_ASC_NODE":110.9836,"ARG_OF_PERICENTER":269.9008,"MEAN_ANOMALY":90.1651,"EPHEMERIS_TYPE":0,"CLASSIFICATION_TYPE":"U","NORAD_CAT_ID":63119,"ELEMENT_SET_NO":999,"REV_AT_EPOCH":2598,"BSTAR":0.0011384,"MEAN_MOTION_DOT":0.00031182,"MEAN_MOTION_DDOT":0},{"OBJECT_NAME":"STARLINK-32942","OBJECT_ID":"2025-039S","EPOCH":"2025-08-10T23:42:50.362560","MEAN_MOTION":15.27556554,"ECCENTRICITY":3.26e-5,"INCLINATION":42.9993,"RA_OF_ASC_NODE":122.6251,"ARG_OF_PERICENTER":254.3503,"MEAN_ANOMALY":105.7313,"EPHEMERIS_TYPE":0,"CLASSIFICATION_TYPE":"U","NORAD_CAT_ID":63120,"ELEMENT_SET_NO":999,"REV_AT_EPOCH":2584,"BSTAR":0.0010915,"MEAN_MOTION_DOT":0.00029874,"MEAN_MOTION_DDOT":0},{"OBJECT_NAME":"STARLINK-32947","OBJECT_ID":"2025-039T","EPOCH":"2025-08-11T02:04:53.364000","MEAN_MOTION":15.27571752,"ECCENTRICITY":0.0002378,"INCLINATION":42.9996,"RA_OF_ASC_NODE":121.6459,"ARG_OF_PERICENTER":290.1633,"MEAN_ANOMALY":69.8963,"EPHEMERIS_TYPE":0,"CLASSIFICATION_TYPE":"U","NORAD_CAT_ID":63121,"ELEMENT_SET_NO":999,"REV_AT_EPOCH":2586,"BSTAR":0.0011909,"MEAN_MOTION_DOT":0.00032647,"MEAN_MOTION_DDOT":0},{"OBJECT_NAME":"STARLINK-32961","OBJECT_ID":"2025-039U","EPOCH":"2025-08-11T01:33:38.891808","MEAN_MOTION":15.27560038,"ECCENTRICITY":0.0002086,"INCLINATION":43.0008,"RA_OF_ASC_NODE":122.3503,"ARG_OF_PERICENTER":249.625,"MEAN_ANOMALY":110.4377,"EPHEMERIS_TYPE":0,"CLASSIFICATION_TYPE":"U","NORAD_CAT_ID":63122,"ELEMENT_SET_NO":999,"REV_AT_EPOCH":2585,"BSTAR":0.0012678,"MEAN_MOTION_DOT":0.00034769,"MEAN_MOTION_DDOT":0},{"OBJECT_NAME":"STARLINK-32948","OBJECT_ID":"2025-039V","EPOCH":"2025-08-10T23:48:23.343840","MEAN_MOTION":15.27555292,"ECCENTRICITY":0.0003277,"INCLINATION":43.0023,"RA_OF_ASC_NODE":122.6608,"ARG_OF_PERICENTER":283.2704,"MEAN_ANOMALY":76.7782,"EPHEMERIS_TYPE":0,"CLASSIFICATION_TYPE":"U","NORAD_CAT_ID":63123,"ELEMENT_SET_NO":999,"REV_AT_EPOCH":2584,"BSTAR":0.00094543,"MEAN_MOTION_DOT":0.00025828,"MEAN_MOTION_DDOT":0},{"OBJECT_NAME":"STARLINK-32957","OBJECT_ID":"2025-039W","EPOCH":"2025-08-11T01:42:54.138816","MEAN_MOTION":15.27523411,"ECCENTRICITY":0.0001505,"INCLINATION":43.0007,"RA_OF_ASC_NODE":122.3997,"ARG_OF_PERICENTER":252.0813,"MEAN_ANOMALY":107.9874,"EPHEMERIS_TYPE":0,"CLASSIFICATION_TYPE":"U","NORAD_CAT_ID":63124,"ELEMENT_SET_NO":999,"REV_AT_EPOCH":2585,"BSTAR":0.00059818,"MEAN_MOTION_DOT":0.00016206,"MEAN_MOTION_DDOT":0},{"OBJECT_NAME":"STARLINK-11609 [DTC]","OBJECT_ID":"2025-043A","EPOCH":"2025-08-10T23:49:09.319872","MEAN_MOTION":15.7087196,"ECCENTRICITY":7.15e-5,"INCLINATION":42.9967,"RA_OF_ASC_NODE":80.8478,"ARG_OF_PERICENTER":245.2834,"MEAN_ANOMALY":114.7959,"EPHEMERIS_TYPE":0,"CLASSIFICATION_TYPE":"U","NORAD_CAT_ID":63132,"ELEMENT_SET_NO":999,"REV_AT_EPOCH":2632,"BSTAR":0.0013492,"MEAN_MOTION_DOT":0.00176637,"MEAN_MOTION_DDOT":0},{"OBJECT_NAME":"STARLINK-11604 [DTC]","OBJECT_ID":"2025-043B","EPOCH":"2025-08-11T00:19:45.721632","MEAN_MOTION":15.7087634,"ECCENTRICITY":0.0001926,"INCLINATION":43.0002,"RA_OF_ASC_NODE":81.0186,"ARG_OF_PERICENTER":275.5725,"MEAN_ANOMALY":84.4923,"EPHEMERIS_TYPE":0,"CLASSIFICATION_TYPE":"U","NORAD_CAT_ID":63133,"ELEMENT_SET_NO":999,"REV_AT_EPOCH":2621,"BSTAR":0.0019175,"MEAN_MOTION_DOT":0.00253637,"MEAN_MOTION_DDOT":0},{"OBJECT_NAME":"STARLINK-11605 [DTC]","OBJECT_ID":"2025-043C","EPOCH":"2025-08-10T23:56:47.857632","MEAN_MOTION":15.70838174,"ECCENTRICITY":0.0001794,"INCLINATION":42.9997,"RA_OF_ASC_NODE":80.8894,"ARG_OF_PERICENTER":290.0138,"MEAN_ANOMALY":70.0537,"EPHEMERIS_TYPE":0,"CLASSIFICATION_TYPE":"U","NORAD_CAT_ID":63134,"ELEMENT_SET_NO":999,"REV_AT_EPOCH":2621,"BSTAR":0.001496,"MEAN_MOTION_DOT":0.00196091,"MEAN_MOTION_DDOT":0},{"OBJECT_NAME":"STARLINK-11610 [DTC]","OBJECT_ID":"2025-043D","EPOCH":"2025-08-10T14:55:04.564704","MEAN_MOTION":15.70888656,"ECCENTRICITY":0.0001975,"INCLINATION":43,"RA_OF_ASC_NODE":83.2317,"ARG_OF_PERICENTER":247.9088,"MEAN_ANOMALY":112.157,"EPHEMERIS_TYPE":0,"CLASSIFICATION_TYPE":"U","NORAD_CAT_ID":63135,"ELEMENT_SET_NO":999,"REV_AT_EPOCH":2615,"BSTAR":0.00138,"MEAN_MOTION_DOT":0.00180903,"MEAN_MOTION_DDOT":0},{"OBJECT_NAME":"STARLINK-11613 [DTC]","OBJECT_ID":"2025-043E","EPOCH":"2025-08-11T00:12:05.079168","MEAN_MOTION":15.70902257,"ECCENTRICITY":0.0002649,"INCLINATION":43.0015,"RA_OF_ASC_NODE":80.9749,"ARG_OF_PERICENTER":269.2381,"MEAN_ANOMALY":90.8183,"EPHEMERIS_TYPE":0,"CLASSIFICATION_TYPE":"U","NORAD_CAT_ID":63136,"ELEMENT_SET_NO":999,"REV_AT_EPOCH":2633,"BSTAR":0.0017789,"MEAN_MOTION_DOT":0.00235004,"MEAN_MOTION_DDOT":0},{"OBJECT_NAME":"STARLINK-11616 [DTC]","OBJECT_ID":"2025-043F","EPOCH":"2025-08-10T20:01:28.073280","MEAN_MOTION":15.70834516,"ECCENTRICITY":0.0001605,"INCLINATION":42.9996,"RA_OF_ASC_NODE":81.3626,"ARG_OF_PERICENTER":233.6694,"MEAN_ANOMALY":126.4026,"EPHEMERIS_TYPE":0,"CLASSIFICATION_TYPE":"U","NORAD_CAT_ID":63137,"ELEMENT_SET_NO":999,"REV_AT_EPOCH":2631,"BSTAR":0.0012851,"MEAN_MOTION_DOT":0.00167779,"MEAN_MOTION_DDOT":0},{"OBJECT_NAME":"STARLINK-11611 [DTC]","OBJECT_ID":"2025-043G","EPOCH":"2025-08-10T23:26:12.687072","MEAN_MOTION":15.70951568,"ECCENTRICITY":0.0003428,"INCLINATION":43.001,"RA_OF_ASC_NODE":80.7194,"ARG_OF_PERICENTER":266.1063,"MEAN_ANOMALY":93.9412,"EPHEMERIS_TYPE":0,"CLASSIFICATION_TYPE":"U","NORAD_CAT_ID":63138,"ELEMENT_SET_NO":999,"REV_AT_EPOCH":2633,"BSTAR":0.0014803,"MEAN_MOTION_DOT":0.00194956,"MEAN_MOTION_DDOT":0},{"OBJECT_NAME":"STARLINK-11628 [DTC]","OBJECT_ID":"2025-043H","EPOCH":"2025-08-10T23:33:51.613632","MEAN_MOTION":15.7086635,"ECCENTRICITY":0.0001736,"INCLINATION":43.0014,"RA_OF_ASC_NODE":80.76,"ARG_OF_PERICENTER":273.4645,"MEAN_ANOMALY":86.6024,"EPHEMERIS_TYPE":0,"CLASSIFICATION_TYPE":"U","NORAD_CAT_ID":63139,"ELEMENT_SET_NO":999,"REV_AT_EPOCH":2633,"BSTAR":0.0013649,"MEAN_MOTION_DOT":0.00178701,"MEAN_MOTION_DDOT":0},{"OBJECT_NAME":"STARLINK-11607 [DTC]","OBJECT_ID":"2025-043J","EPOCH":"2025-08-10T23:10:55.898400","MEAN_MOTION":15.7088915,"ECCENTRICITY":0.0002679,"INCLINATION":42.9998,"RA_OF_ASC_NODE":80.6307,"ARG_OF_PERICENTER":326.3038,"MEAN_ANOMALY":33.7659,"EPHEMERIS_TYPE":0,"CLASSIFICATION_TYPE":"U","NORAD_CAT_ID":63140,"ELEMENT_SET_NO":999,"REV_AT_EPOCH":2633,"BSTAR":0.0018886,"MEAN_MOTION_DOT":0.00249836,"MEAN_MOTION_DDOT":0}]
